{
  "type": "FeatureCollection",
  "features": [
    {
      "type": "Feature",
      "properties": {
        "norad_id": 30315,
        "name": "FENGYUN 1C DEB",
        "group": "fengyun-1c-debris",
        "lat": -11.778535296614214,
        "lon": -177.5961817255368,
        "alt_km": 853.2585729488765,
        "timestamp": "2025-12-20T22:39:10.901920+00:00",
        "meta_object_name": "FENGYUN 1C DEB",
        "meta_object_id": "1999-025AAC",
        "meta_epoch": "2025-12-20T12:18:42.566688",
        "meta_mean_motion": 14.19075097,
        "meta_eccentricity": 0.00348015,
        "meta_inclination": 98.6015,
        "meta_ra_of_asc_node": 3.7943,
        "meta_arg_of_pericenter": 337.8089,
        "meta_mean_anomaly": 174.22,
        "meta_ephemeris_type": 0,
        "meta_classification_type": "U",
        "meta_norad_cat_id": 30315,
        "meta_element_set_no": 999,
        "meta_rev_at_epoch": 97817,
        "meta_bstar": 0.00026077206,
        "meta_mean_motion_dot": 5.05e-06,
        "meta_mean_motion_ddot": 0,
        "tle_line1": "1 30315U 99025AAC 25354.51299267  .00000505  00000+0  26077-3 0  9991",
        "tle_line2": "2 30315  98.6015   3.7943 0034801 337.8089 174.2200 14.19075097978174"
      },
      "geometry": {
        "type": "Point",
        "coordinates": [
          -177.5961817255368,
          -11.778535296614214
        ]
      }
    },
    {
      "type": "Feature",
      "properties": {
        "norad_id": 30316,
        "name": "FENGYUN 1C DEB",
        "group": "fengyun-1c-debris",
        "lat": -75.34540147859899,
        "lon": -117.93763647177992,
        "alt_km": 723.758539235585,
        "timestamp": "2025-12-20T22:39:10.901929+00:00",
        "meta_object_name": "FENGYUN 1C DEB",
        "meta_object_id": "1999-025AAD",
        "meta_epoch": "2025-12-20T06:37:41.618496",
        "meta_mean_motion": 14.56186954,
        "meta_eccentricity": 0.00353185,
        "meta_inclination": 98.6484,
        "meta_ra_of_asc_node": 96.964,
        "meta_arg_of_pericenter": 16.3276,
        "meta_mean_anomaly": 343.905,
        "meta_ephemeris_type": 0,
        "meta_classification_type": "U",
        "meta_norad_cat_id": 30316,
        "meta_element_set_no": 999,
        "meta_rev_at_epoch": 98446,
        "meta_bstar": 0.0013177152,
        "meta_mean_motion_dot": 5.823e-05,
        "meta_mean_motion_ddot": 0,
        "tle_line1": "1 30316U 99025AAD 25354.27617614  .00005823  00000+0  13177-2 0  9999",
        "tle_line2": "2 30316  98.6484  96.9640 0035318  16.3276 343.9050 14.56186954984467"
      },
      "geometry": {
        "type": "Point",
        "coordinates": [
          -117.93763647177992,
          -75.34540147859899
        ]
      }
    },
    {
      "type": "Feature",
      "properties": {
        "norad_id": 30317,
        "name": "FENGYUN 1C DEB",
        "group": "fengyun-1c-debris",
        "lat": -6.383368410858189,
        "lon": 174.19194535403162,
        "alt_km": 866.4663006003093,
        "timestamp": "2025-12-20T22:39:10.901938+00:00",
        "meta_object_name": "FENGYUN 1C DEB",
        "meta_object_id": "1999-025AAE",
        "meta_epoch": "2025-12-20T11:31:37.557120",
        "meta_mean_motion": 14.06952369,
        "meta_eccentricity": 0.00241205,
        "meta_inclination": 98.7865,
        "meta_ra_of_asc_node": 354.733,
        "meta_arg_of_pericenter": 254.0249,
        "meta_mean_anomaly": 105.8262,
        "meta_ephemeris_type": 0,
        "meta_classification_type": "U",
        "meta_norad_cat_id": 30317,
        "meta_element_set_no": 999,
        "meta_rev_at_epoch": 97122,
        "meta_bstar": 5.3402063e-05,
        "meta_mean_motion_dot": 4.6e-07,
        "meta_mean_motion_ddot": 0,
        "tle_line1": "1 30317U 99025AAE 25354.48029580  .00000046  00000+0  53402-4 0  9991",
        "tle_line2": "2 30317  98.7865 354.7330 0024120 254.0249 105.8262 14.06952369971229"
      },
      "geometry": {
        "type": "Point",
        "coordinates": [
          174.19194535403162,
          -6.383368410858189
        ]
      }
    },
    {
      "type": "Feature",
      "properties": {
        "norad_id": 30320,
        "name": "FENGYUN 1C DEB",
        "group": "fengyun-1c-debris",
        "lat": 18.84614638017357,
        "lon": 51.090019787604504,
        "alt_km": 916.802923532281,
        "timestamp": "2025-12-20T22:39:10.901947+00:00",
        "meta_object_name": "FENGYUN 1C DEB",
        "meta_object_id": "1999-025AAH",
        "meta_epoch": "2025-12-20T10:35:33.107424",
        "meta_mean_motion": 13.98558615,
        "meta_eccentricity": 0.0084953,
        "meta_inclination": 99.1865,
        "meta_ra_of_asc_node": 53.7531,
        "meta_arg_of_pericenter": 273.3138,
        "meta_mean_anomaly": 96.2415,
        "meta_ephemeris_type": 0,
        "meta_classification_type": "U",
        "meta_norad_cat_id": 30320,
        "meta_element_set_no": 999,
        "meta_rev_at_epoch": 96515,
        "meta_bstar": 0.00017580681,
        "meta_mean_motion_dot": 2.14e-06,
        "meta_mean_motion_ddot": 0,
        "tle_line1": "1 30320U 99025AAH 25354.44135541  .00000214  00000+0  17581-3 0  9990",
        "tle_line2": "2 30320  99.1865  53.7531 0084953 273.3138  96.2415 13.98558615965152"
      },
      "geometry": {
        "type": "Point",
        "coordinates": [
          51.090019787604504,
          18.84614638017357
        ]
      }
    },
    {
      "type": "Feature",
      "properties": {
        "norad_id": 30321,
        "name": "FENGYUN 1C DEB",
        "group": "fengyun-1c-debris",
        "lat": -63.12728850221815,
        "lon": 156.26209619559998,
        "alt_km": 806.7420351044511,
        "timestamp": "2025-12-20T22:39:10.901956+00:00",
        "meta_object_name": "FENGYUN 1C DEB",
        "meta_object_id": "1999-025AAJ",
        "meta_epoch": "2025-12-19T23:43:59.046240",
        "meta_mean_motion": 14.16649179,
        "meta_eccentricity": 0.0060181,
        "meta_inclination": 98.6561,
        "meta_ra_of_asc_node": 352.8281,
        "meta_arg_of_pericenter": 215.7125,
        "meta_mean_anomaly": 200.6436,
        "meta_ephemeris_type": 0,
        "meta_classification_type": "U",
        "meta_norad_cat_id": 30321,
        "meta_element_set_no": 999,
        "meta_rev_at_epoch": 97646,
        "meta_bstar": 0.00022701,
        "meta_mean_motion_dot": 4.18e-06,
        "meta_mean_motion_ddot": 0,
        "tle_line1": "1 30321U 99025AAJ 25353.98887785  .00000418  00000+0  22701-3 0  9999",
        "tle_line2": "2 30321  98.6561 352.8281 0060181 215.7125 200.6436 14.16649179976465"
      },
      "geometry": {
        "type": "Point",
        "coordinates": [
          156.26209619559998,
          -63.12728850221815
        ]
      }
    },
    {
      "type": "Feature",
      "properties": {
        "norad_id": 30322,
        "name": "FENGYUN 1C DEB",
        "group": "fengyun-1c-debris",
        "lat": -53.160656134826034,
        "lon": -136.58142093391052,
        "alt_km": 856.8701069472327,
        "timestamp": "2025-12-20T22:39:10.901964+00:00",
        "meta_object_name": "FENGYUN 1C DEB",
        "meta_object_id": "1999-025AAK",
        "meta_epoch": "2025-12-20T02:25:02.479296",
        "meta_mean_motion": 14.0612852,
        "meta_eccentricity": 0.01265534,
        "meta_inclination": 98.3983,
        "meta_ra_of_asc_node": 211.2634,
        "meta_arg_of_pericenter": 232.1014,
        "meta_mean_anomaly": 126.8658,
        "meta_ephemeris_type": 0,
        "meta_classification_type": "U",
        "meta_norad_cat_id": 30322,
        "meta_element_set_no": 999,
        "meta_rev_at_epoch": 96303,
        "meta_bstar": 0.00099002919,
        "meta_mean_motion_dot": 1.709e-05,
        "meta_mean_motion_ddot": 0,
        "tle_line1": "1 30322U 99025AAK 25354.10072314  .00001709  00000+0  99003-3 0  9992",
        "tle_line2": "2 30322  98.3983 211.2634 0126553 232.1014 126.8658 14.06128520963032"
      },
      "geometry": {
        "type": "Point",
        "coordinates": [
          -136.58142093391052,
          -53.160656134826034
        ]
      }
    },
    {
      "type": "Feature",
      "properties": {
        "norad_id": 30325,
        "name": "FENGYUN 1C DEB",
        "group": "fengyun-1c-debris",
        "lat": 61.60921920577012,
        "lon": -2.479382941324181,
        "alt_km": 867.235440848991,
        "timestamp": "2025-12-20T22:39:10.901973+00:00",
        "meta_object_name": "FENGYUN 1C DEB",
        "meta_object_id": "1999-025AAL",
        "meta_epoch": "2025-12-20T07:01:02.754336",
        "meta_mean_motion": 14.09106576,
        "meta_eccentricity": 0.00154345,
        "meta_inclination": 98.7322,
        "meta_ra_of_asc_node": 13.4099,
        "meta_arg_of_pericenter": 230.6362,
        "meta_mean_anomaly": 129.3441,
        "meta_ephemeris_type": 0,
        "meta_classification_type": "U",
        "meta_norad_cat_id": 30325,
        "meta_element_set_no": 999,
        "meta_rev_at_epoch": 97122,
        "meta_bstar": 7.586235e-05,
        "meta_mean_motion_dot": 8.9e-07,
        "meta_mean_motion_ddot": 0,
        "tle_line1": "1 30325U 99025AAL 25354.29239299  .00000089  00000+0  75862-4 0  9990",
        "tle_line2": "2 30325  98.7322  13.4099 0015434 230.6362 129.3441 14.09106576971225"
      },
      "geometry": {
        "type": "Point",
        "coordinates": [
          -2.479382941324181,
          61.60921920577012
        ]
      }
    }
  ]
}